IRIDIUM 136             
1 42962U 17061H   23269.98239224  .00000211  00000+0  68450-4 0  9999
2 42962  86.3915  80.7451 0002350  88.8311 271.3154 14.34219879312334
